NORAD_CAT_ID,OBJECT_NAME,OBJECT_TYPE,EPOCH,MEAN_MOTION,ECCENTRICITY,INCLINATION,RA_OF_ASC_NODE,ARG_OF_PERICENTER,MEAN_ANOMALY,BSTAR,MEAN_MOTION_DOT,MEAN_MOTION_DDOT,TLE_LINE0,TLE_LINE1,TLE_LINE2,SEMIMAJOR_AXIS,PERIOD,APOGEE,PERIGEE,DECAYED
56461.0,STARLINK-6037,PAYLOAD,2024-07-05 14:12:39,14.98340554,0.0003384,69.9987,247.6127,269.8233,90.2539,7.5735e-05,8.11e-06,0.0,0 STARLINK-6037,1 56461U 23064P   24187.59212246  .00000811  00000-0  75735-4 0  9991,2 56461  69.9987 247.6127 0003384 269.8233  90.2539 14.98340554 63563,6950.16,96.106,574.377,569.673,0.0
56461.0,STARLINK-6037,PAYLOAD,2024-07-06 04:37:52,14.98326458,0.0003335,69.9987,246.0977,270.0595,90.0181,-1.1996e-05,-2.36e-06,0.0,0 STARLINK-6037,1 56461U 23064P   24188.19297242 -.00000236  00000-0 -11996-4 0  9999,2 56461  69.9987 246.0977 0003335 270.0595  90.0181 14.98326458 64019,6950.204,96.107,574.387,569.751,0.0
56461.0,STARLINK-6037,PAYLOAD,2024-07-06 14:14:40,14.98329793,0.0003342,69.9988,245.0878,270.1297,89.9479,5.6903e-06,-2.5e-07,0.0,0 STARLINK-6037,1 56461U 23064P   24188.59352962 -.00000025  00000-0  56903-5 0  9997,2 56461  69.9988 245.0878 0003342 270.1297  89.9479 14.98329793 63715,6950.194,96.107,574.381,569.736,0.0
56461.0,STARLINK-6037,PAYLOAD,2024-07-06 20:39:13,14.98329399,0.0003339,69.9988,244.4145,270.1958,89.8819,-2.2638e-05,-3.63e-06,0.0,0 STARLINK-6037,1 56461U 23064P   24188.86057057 -.00000363  00000-0 -22638-4 0  9997,2 56461  69.9988 244.4145 0003339 270.1958  89.8819 14.98329399 63758,6950.195,96.107,574.38,569.739,0.0
56461.0,STARLINK-6037,PAYLOAD,2024-07-07 04:39:53,14.98330426,0.0003336,69.9986,243.5729,269.3222,90.7555,-1.6168e-05,-2.86e-06,0.0,0 STARLINK-6037,1 56461U 23064P   24189.19436974 -.00000286  00000-0 -16168-4 0  9998,2 56461  69.9986 243.5729 0003336 269.3222  90.7555 14.98330426 64162,6950.192,96.107,574.375,569.738,0.0
56461.0,STARLINK-6037,PAYLOAD,2024-07-07 12:40:33,14.98331703,0.0003349,69.9987,242.7315,268.131,91.9465,-2.1526e-05,-3.5e-06,0.0,0 STARLINK-6037,1 56461U 23064P   24189.52816876 -.00000350  00000-0 -21526-4 0  9994,2 56461  69.9987 242.7315 0003349 268.1310  91.9465 14.98331703 63851,6950.188,96.107,574.38,569.725,0.0
56461.0,STARLINK-6037,PAYLOAD,2024-07-08 12:42:34,14.98331037,0.0003381,69.9985,240.2064,267.5309,92.5463,7.3985e-05,7.9e-06,0.0,0 STARLINK-6037,1 56461U 23064P   24190.52956659  .00000790  00000-0  73985-4 0  9992,2 56461  69.9985 240.2064 0003381 267.5309  92.5463 14.98331037 64362,6950.19,96.107,574.405,569.705,0.0
56461.0,STARLINK-6037,PAYLOAD,2024-07-08 20:43:14,14.98330928,0.0003459,69.9983,239.365,269.8357,90.2406,5.9251e-05,6.14e-06,0.0,0 STARLINK-6037,1 56461U 23064P   24190.86336684  .00000614  00000-0  59251-4 0  9994,2 56461  69.9983 239.3650 0003459 269.8357  90.2406 14.98330928 64050,6950.19,96.107,574.459,569.651,0.0
56461.0,STARLINK-6037,PAYLOAD,2024-07-09 12:44:35,14.98332233,0.0003452,69.9983,237.6822,270.1639,89.9124,4.7187e-05,4.7e-06,0.0,0 STARLINK-6037,1 56461U 23064P   24191.53096607  .00000470  00000-0  47187-4 0  9992,2 56461  69.9983 237.6822 0003452 270.1639  89.9124 14.98332233 64517,6950.186,96.107,574.45,569.652,0.0
56461.0,STARLINK-6037,PAYLOAD,2024-07-10 12:46:36,14.98329202,0.0003447,69.9984,235.1573,270.0014,90.075,-6.5477e-06,-1.71e-06,0.0,0 STARLINK-6037,1 56461U 23064P   24192.53236944 -.00000171  00000-0 -65477-5 0  9996,2 56461  69.9984 235.1573 0003447 270.0014  90.0750 14.98329202 64660,6950.195,96.107,574.456,569.665,0.0
56461.0,STARLINK-6037,PAYLOAD,2024-07-11 12:48:37,14.98334712,0.0003443,69.9985,232.6324,269.821,90.2555,5.0533e-05,5.1e-06,0.0,0 STARLINK-6037,1 56461U 23064P   24193.53376317  .00000510  00000-0  50533-4 0  9997,2 56461  69.9985 232.6324 0003443 269.8210  90.2555 14.98334712 64451,6950.178,96.107,574.436,569.65,0.0
56461.0,STARLINK-6037,PAYLOAD,2024-07-12 04:49:58,14.98328826,0.0003438,69.9985,230.9485,270.3009,89.7756,4.6013e-05,4.56e-06,0.0,0 STARLINK-6037,1 56461U 23064P   24194.20136650  .00000456  00000-0  46013-4 0  9993,2 56461  69.9985 230.9485 0003438 270.3009  89.7756 14.98328826 64913,6950.197,96.107,574.451,569.672,0.0
56461.0,STARLINK-6037,PAYLOAD,2024-07-12 12:50:38,14.9832989,0.000344,69.9985,230.1069,270.2752,89.8013,5.3043e-05,5.4e-06,0.0,0 STARLINK-6037,1 56461U 23064P   24194.53516598  .00000540  00000-0  53043-4 0  9997,2 56461  69.9985 230.1069 0003440 270.2752  89.8013 14.98329890 64605,6950.193,96.107,574.449,569.667,0.0
56461.0,STARLINK-6037,PAYLOAD,2024-07-12 19:15:10,14.98329569,0.0003438,69.9985,229.4335,270.2121,89.8644,2.0466e-05,1.51e-06,0.0,0 STARLINK-6037,1 56461U 23064P   24194.80220688  .00000151  00000-0  20466-4 0  9990,2 56461  69.9985 229.4335 0003438 270.2121  89.8644 14.98329569 64646,6950.194,96.107,574.449,569.67,0.0
56461.0,STARLINK-6037,PAYLOAD,2024-07-13 04:51:58,14.98332151,0.0003381,69.9986,228.4235,269.2602,90.8169,-1.3532e-06,-1.09e-06,0.0,0 STARLINK-6037,1 56461U 23064P   24195.20276569 -.00000109  00000-0 -13532-5 0  9996,2 56461  69.9986 228.4235 0003381 269.2602  90.8169 14.98332151 65066,6950.186,96.107,574.401,569.701,0.0
56461.0,STARLINK-6037,PAYLOAD,2024-07-13 11:16:31,14.98330226,0.0003455,69.9984,227.7502,269.5068,90.5695,-2.6282e-05,-4.07e-06,0.0,0 STARLINK-6037,1 56461U 23064P   24195.46980743 -.00000407  00000-0 -26282-4 0  9996,2 56461  69.9984 227.7502 0003455 269.5068  90.5695 14.98330226 64740,6950.192,96.107,574.458,569.656,0.0
56461.0,STARLINK-6037,PAYLOAD,2024-07-14 04:53:59,14.98330302,0.0003541,69.9982,225.8987,269.0948,90.9805,3.4034e-05,3.13e-06,0.0,0 STARLINK-6037,1 56461U 23064P   24196.20416559  .00000313  00000-0  34034-4 0  9996,2 56461  69.9982 225.8987 0003541 269.0948  90.9805 14.98330302 65217,6950.192,96.107,574.518,569.596,0.0
56461.0,STARLINK-6037,PAYLOAD,2024-07-14 11:18:32,14.98331339,0.0003542,69.9982,225.2253,269.2635,90.8118,4.356e-05,4.27e-06,0.0,0 STARLINK-6037,1 56461U 23064P   24196.47120469  .00000427  00000-0  43560-4 0  9997,2 56461  69.9982 225.2253 0003542 269.2635  90.8118 14.98331339 64893,6950.189,96.107,574.516,569.592,0.0
56461.0,STARLINK-6037,PAYLOAD,2024-07-14 19:19:12,14.98330456,0.0003537,69.9982,224.3836,269.3291,90.7463,2.6784e-05,2.27e-06,0.0,0 STARLINK-6037,1 56461U 23064P   24196.80500556  .00000227  00000-0  26784-4 0  9990,2 56461  69.9982 224.3836 0003537 269.3291  90.7463 14.98330456 64940,6950.191,96.107,574.515,569.598,0.0
56461.0,STARLINK-6037,PAYLOAD,2024-07-15 04:56:00,14.98329888,0.0003578,69.9981,223.3734,268.9366,91.1383,6.2461e-05,6.52e-06,0.0,0 STARLINK-6037,1 56461U 23064P   24197.20556510  .00000652  00000-0  62461-4 0  9990,2 56461  69.9981 223.3734 0003578 268.9366  91.1383 14.98329888 65368,6950.193,96.107,574.545,569.571,0.0
56461.0,STARLINK-6037,PAYLOAD,2024-07-15 11:20:33,14.98330331,0.00036,69.9981,222.7,268.6217,91.4529,5.3579e-05,5.46e-06,0.0,0 STARLINK-6037,1 56461U 23064P   24197.47260519  .00000546  00000-0  53579-4 0  9992,2 56461  69.9981 222.7000 0003600 268.6217  91.4529 14.98330331 65040,6950.192,96.107,574.559,569.555,0.0
56461.0,STARLINK-6037,PAYLOAD,2024-07-15 19:21:13,14.98330455,0.0003627,69.9981,221.8579,268.5355,91.5388,4.6661e-05,4.64e-06,0.0,0 STARLINK-6037,1 56461U 23064P   24197.80640465  .00000464  00000-0  46661-4 0  9994,2 56461  69.9981 221.8579 0003627 268.5355  91.5388 14.98330455 65098,6950.191,96.107,574.577,569.536,0.0
56461.0,STARLINK-6037,PAYLOAD,2024-07-16 04:58:01,14.98331203,0.0003618,69.998,220.8479,268.1778,91.8967,2.5692e-05,2.13e-06,0.0,0 STARLINK-6037,1 56461U 23064P   24198.20696465  .00000213  00000-0  25692-4 0  9993,2 56461  69.9980 220.8479 0003618 268.1778  91.8967 14.98331203 65515,6950.189,96.107,574.569,569.54,0.0
56461.0,STARLINK-6037,PAYLOAD,2024-07-16 11:22:33,14.98333052,0.000361,69.998,220.1749,268.6297,91.4449,4.5164e-05,4.46e-06,0.0,0 STARLINK-6037,1 56461U 23064P   24198.47400264  .00000446  00000-0  45164-4 0  9996,2 56461  69.9980 220.1749 0003610 268.6297  91.4449 14.98333052 65190,6950.183,96.107,574.557,569.539,0.0
56461.0,STARLINK-6037,PAYLOAD,2024-07-17 05:00:02,14.9833229,0.0003618,69.9981,218.3233,268.4595,91.615,4.8973e-05,4.91e-06,0.0,0 STARLINK-6037,1 56461U 23064P   24199.20836207  .00000491  00000-0  48973-4 0  9999,2 56461  69.9981 218.3233 0003618 268.4595  91.6150 14.98332290 65661,6950.186,96.107,574.565,569.536,0.0
56461.0,STARLINK-6037,PAYLOAD,2024-07-17 11:24:34,14.98335632,0.0003626,69.9981,217.65,268.5203,91.554,6.8216e-05,7.21e-06,0.0,0 STARLINK-6037,1 56461U 23064P   24199.47539974  .00000721  00000-0  68216-4 0  9997,2 56461  69.9981 217.6500 0003626 268.5203  91.5540 14.98335632 65346,6950.175,96.107,574.561,569.52,0.0
56461.0,STARLINK-6037,PAYLOAD,2024-07-18 05:02:03,14.98328672,0.000356,69.9982,215.7983,268.5471,91.5281,5.915e-07,-8.6e-07,0.0,0 STARLINK-6037,1 56461U 23064P   24200.20976531 -.00000086  00000-0  59150-6 0  9999,2 56461  69.9982 215.7983 0003560 268.5471  91.5281 14.98328672 65815,6950.197,96.107,574.536,569.588,0.0
56461.0,STARLINK-6037,PAYLOAD,2024-07-18 11:26:36,14.98328655,0.0003557,69.9983,215.1254,268.1238,91.9513,-1.2826e-05,-2.46e-06,0.0,0 STARLINK-6037,1 56461U 23064P   24200.47680585 -.00000246  00000-0 -12826-4 0  9995,2 56461  69.9983 215.1254 0003557 268.1238  91.9513 14.98328655 65491,6950.197,96.107,574.534,569.59,0.0
56461.0,STARLINK-6037,PAYLOAD,2024-07-18 17:51:08,14.9833147,0.0003561,69.9983,214.4521,268.2379,91.8372,2.0431e-05,1.51e-06,0.0,0 STARLINK-6037,1 56461U 23064P   24200.74384329  .00000151  00000-0  20431-4 0  9996,2 56461  69.9983 214.4521 0003561 268.2379  91.8372 14.98331470 65538,6950.188,96.107,574.528,569.578,0.0
56461.0,STARLINK-6037,PAYLOAD,2024-07-19 05:04:04,14.98332232,0.0003445,69.9983,213.2733,266.5285,93.548,4.4166e-05,4.34e-06,0.0,0 STARLINK-6037,1 56461U 23064P   24201.21116186  .00000434  00000-0  44166-4 0  9998,2 56461  69.9983 213.2733 0003445 266.5285  93.5480 14.98332232 65961,6950.186,96.107,574.445,569.657,0.0
